CCSDS_OMM_VERS = 2.0
CREATION_DATE  = 
ORIGINATOR     = 

OBJECT_NAME    = STARLINK-36847
OBJECT_ID      = 2026-036G
CENTER_NAME    = EARTH
REF_FRAME      = TEME
TIME_SYSTEM    = UTC
MEAN_ELEMENT_THEORY = SGP/SGP4

EPOCH          = 2026-03-04T20:00:03.000384
MEAN_MOTION    = 15.81985333
ECCENTRICITY   = .0001496
INCLINATION    = 42.9964
RA_OF_ASC_NODE = 279.5099
ARG_OF_PERICENTER = 251.9092
MEAN_ANOMALY   = 35.5124

EPHEMERIS_TYPE = 0
CLASSIFICATION_TYPE = U
NORAD_CAT_ID   = 67910
ELEMENT_SET_NO = 999
REV_AT_EPOCH   = 286
BSTAR          = .26645E-3
MEAN_MOTION_DOT = .55854E-3
MEAN_MOTION_DDOT = 0

CCSDS_OMM_VERS = 2.0
CREATION_DATE  = 
ORIGINATOR     = 

OBJECT_NAME    = STARLINK-36736
OBJECT_ID      = 2026-036H
CENTER_NAME    = EARTH
REF_FRAME      = TEME
TIME_SYSTEM    = UTC
MEAN_ELEMENT_THEORY = SGP/SGP4

EPOCH          = 2026-03-04T20:00:03.000384
MEAN_MOTION    = 15.82025128
ECCENTRICITY   = .0001484
INCLINATION    = 42.9959
RA_OF_ASC_NODE = 279.4987
ARG_OF_PERICENTER = 288.8911
MEAN_ANOMALY   = 2.7826

EPHEMERIS_TYPE = 0
CLASSIFICATION_TYPE = U
NORAD_CAT_ID   = 67911
ELEMENT_SET_NO = 999
REV_AT_EPOCH   = 286
BSTAR          = -.11281E-3
MEAN_MOTION_DOT = -.24229E-3
MEAN_MOTION_DDOT = 0

CCSDS_OMM_VERS = 2.0
CREATION_DATE  = 
ORIGINATOR     = 

OBJECT_NAME    = STARLINK-36676
OBJECT_ID      = 2026-036J
CENTER_NAME    = EARTH
REF_FRAME      = TEME
TIME_SYSTEM    = UTC
MEAN_ELEMENT_THEORY = SGP/SGP4

EPOCH          = 2026-03-04T20:00:03.000384
MEAN_MOTION    = 15.82040627
ECCENTRICITY   = .0002163
INCLINATION    = 42.9960
RA_OF_ASC_NODE = 279.4882
ARG_OF_PERICENTER = 276.7715
MEAN_ANOMALY   = 19.1956

EPHEMERIS_TYPE = 0
CLASSIFICATION_TYPE = U
NORAD_CAT_ID   = 67912
ELEMENT_SET_NO = 999
REV_AT_EPOCH   = 286
BSTAR          = -.45841E-3
MEAN_MOTION_DOT = -.96116E-3
MEAN_MOTION_DDOT = 0

CCSDS_OMM_VERS = 2.0
CREATION_DATE  = 
ORIGINATOR     = 

OBJECT_NAME    = STARLINK-36690
OBJECT_ID      = 2026-036K
CENTER_NAME    = EARTH
REF_FRAME      = TEME
TIME_SYSTEM    = UTC
MEAN_ELEMENT_THEORY = SGP/SGP4

EPOCH          = 2026-03-04T20:00:03.000384
MEAN_MOTION    = 15.82002690
ECCENTRICITY   = .000145
INCLINATION    = 42.9960
RA_OF_ASC_NODE = 279.4774
ARG_OF_PERICENTER = 255.9157
MEAN_ANOMALY   = 44.3483

EPHEMERIS_TYPE = 0
CLASSIFICATION_TYPE = U
NORAD_CAT_ID   = 67913
ELEMENT_SET_NO = 999
REV_AT_EPOCH   = 286
BSTAR          = -.44633E-4
MEAN_MOTION_DOT = -.9914E-4
MEAN_MOTION_DDOT = 0

CCSDS_OMM_VERS = 2.0
CREATION_DATE  = 
ORIGINATOR     = 

OBJECT_NAME    = STARLINK-36724
OBJECT_ID      = 2026-036L
CENTER_NAME    = EARTH
REF_FRAME      = TEME
TIME_SYSTEM    = UTC
MEAN_ELEMENT_THEORY = SGP/SGP4

EPOCH          = 2026-03-04T20:00:03.000384
MEAN_MOTION    = 15.82044526
ECCENTRICITY   = .0001442
INCLINATION    = 42.9961
RA_OF_ASC_NODE = 279.4553
ARG_OF_PERICENTER = 263.0495
MEAN_ANOMALY   = 45.7475

EPHEMERIS_TYPE = 0
CLASSIFICATION_TYPE = U
NORAD_CAT_ID   = 67914
ELEMENT_SET_NO = 999
REV_AT_EPOCH   = 286
BSTAR          = -.4248E-3
MEAN_MOTION_DOT = -.89183E-3
MEAN_MOTION_DDOT = 0

CCSDS_OMM_VERS = 2.0
CREATION_DATE  = 
ORIGINATOR     = 

OBJECT_NAME    = STARLINK-36723
OBJECT_ID      = 2026-036M
CENTER_NAME    = EARTH
REF_FRAME      = TEME
TIME_SYSTEM    = UTC
MEAN_ELEMENT_THEORY = SGP/SGP4

EPOCH          = 2026-03-04T20:00:03.000384
MEAN_MOTION    = 15.82008732
ECCENTRICITY   = .00015
INCLINATION    = 42.9962
RA_OF_ASC_NODE = 279.4665
ARG_OF_PERICENTER = 254.4336
MEAN_ANOMALY   = 50.1087

EPHEMERIS_TYPE = 0
CLASSIFICATION_TYPE = U
NORAD_CAT_ID   = 67915
ELEMENT_SET_NO = 999
REV_AT_EPOCH   = 286
BSTAR          = -.17386E-3
MEAN_MOTION_DOT = -.36972E-3
MEAN_MOTION_DDOT = 0

CCSDS_OMM_VERS = 2.0
CREATION_DATE  = 
ORIGINATOR     = 

OBJECT_NAME    = STARLINK-36721
OBJECT_ID      = 2026-036N
CENTER_NAME    = EARTH
REF_FRAME      = TEME
TIME_SYSTEM    = UTC
MEAN_ELEMENT_THEORY = SGP/SGP4

EPOCH          = 2026-03-04T20:00:03.000384
MEAN_MOTION    = 15.82039191
ECCENTRICITY   = .0001633
INCLINATION    = 42.9963
RA_OF_ASC_NODE = 279.4452
ARG_OF_PERICENTER = 281.4751
MEAN_ANOMALY   = 31.5985

EPHEMERIS_TYPE = 0
CLASSIFICATION_TYPE = U
NORAD_CAT_ID   = 67916
ELEMENT_SET_NO = 999
REV_AT_EPOCH   = 286
BSTAR          = -.54946E-3
MEAN_MOTION_DOT = -.114836E-2
MEAN_MOTION_DDOT = 0

CCSDS_OMM_VERS = 2.0
CREATION_DATE  = 
ORIGINATOR     = 

OBJECT_NAME    = STARLINK-36722
OBJECT_ID      = 2026-036P
CENTER_NAME    = EARTH
REF_FRAME      = TEME
TIME_SYSTEM    = UTC
MEAN_ELEMENT_THEORY = SGP/SGP4

EPOCH          = 2026-03-04T20:00:03.000384
MEAN_MOTION    = 15.82009402
ECCENTRICITY   = .0001691
INCLINATION    = 42.9938
RA_OF_ASC_NODE = 279.4343
ARG_OF_PERICENTER = 265.6698
MEAN_ANOMALY   = 51.6790

EPHEMERIS_TYPE = 0
CLASSIFICATION_TYPE = U
NORAD_CAT_ID   = 67917
ELEMENT_SET_NO = 999
REV_AT_EPOCH   = 286
BSTAR          = -.21121E-3
MEAN_MOTION_DOT = -.44765E-3
MEAN_MOTION_DDOT = 0

CCSDS_OMM_VERS = 2.0
CREATION_DATE  = 
ORIGINATOR     = 

OBJECT_NAME    = STARLINK-36341
OBJECT_ID      = 2026-036Q
CENTER_NAME    = EARTH
REF_FRAME      = TEME
TIME_SYSTEM    = UTC
MEAN_ELEMENT_THEORY = SGP/SGP4

EPOCH          = 2026-03-04T20:00:03.000384
MEAN_MOTION    = 15.81990463
ECCENTRICITY   = .000165
INCLINATION    = 42.9934
RA_OF_ASC_NODE = 279.4126
ARG_OF_PERICENTER = 259.9908
MEAN_ANOMALY   = 65.9126

EPHEMERIS_TYPE = 0
CLASSIFICATION_TYPE = U
NORAD_CAT_ID   = 67918
ELEMENT_SET_NO = 999
REV_AT_EPOCH   = 286
BSTAR          = -.21528E-4
MEAN_MOTION_DOT = -.5058E-4
MEAN_MOTION_DDOT = 0

CCSDS_OMM_VERS = 2.0
CREATION_DATE  = 
ORIGINATOR     = 

OBJECT_NAME    = STARLINK-36663
OBJECT_ID      = 2026-036R
CENTER_NAME    = EARTH
REF_FRAME      = TEME
TIME_SYSTEM    = UTC
MEAN_ELEMENT_THEORY = SGP/SGP4

EPOCH          = 2026-03-04T20:00:03.000384
MEAN_MOTION    = 15.82006890
ECCENTRICITY   = .0002216
INCLINATION    = 42.9942
RA_OF_ASC_NODE = 279.4234
ARG_OF_PERICENTER = 270.4778
MEAN_ANOMALY   = 51.1507

EPHEMERIS_TYPE = 0
CLASSIFICATION_TYPE = U
NORAD_CAT_ID   = 67919
ELEMENT_SET_NO = 999
REV_AT_EPOCH   = 286
BSTAR          = -.2352E-3
MEAN_MOTION_DOT = -.4976E-3
MEAN_MOTION_DDOT = 0

CCSDS_OMM_VERS = 2.0
CREATION_DATE  = 
ORIGINATOR     = 

OBJECT_NAME    = STARLINK-36375
OBJECT_ID      = 2026-036S
CENTER_NAME    = EARTH
REF_FRAME      = TEME
TIME_SYSTEM    = UTC
MEAN_ELEMENT_THEORY = SGP/SGP4

EPOCH          = 2026-03-04T20:00:03.000384
MEAN_MOTION    = 15.81996351
ECCENTRICITY   = .0002156
INCLINATION    = 42.9935
RA_OF_ASC_NODE = 279.4021
ARG_OF_PERICENTER = 270.5802
MEAN_ANOMALY   = 59.5925

EPHEMERIS_TYPE = 0
CLASSIFICATION_TYPE = U
NORAD_CAT_ID   = 67920
ELEMENT_SET_NO = 999
REV_AT_EPOCH   = 286
BSTAR          = -.4465E-5
MEAN_MOTION_DOT = -.1473E-4
MEAN_MOTION_DDOT = 0

CCSDS_OMM_VERS = 2.0
CREATION_DATE  = 
ORIGINATOR     = 

OBJECT_NAME    = STARLINK-36405
OBJECT_ID      = 2026-036T
CENTER_NAME    = EARTH
REF_FRAME      = TEME
TIME_SYSTEM    = UTC
MEAN_ELEMENT_THEORY = SGP/SGP4

EPOCH          = 2026-03-04T20:00:03.000384
MEAN_MOTION    = 15.81992069
ECCENTRICITY   = .000173
INCLINATION    = 42.9935
RA_OF_ASC_NODE = 279.3916
ARG_OF_PERICENTER = 260.2864
MEAN_ANOMALY   = 74.1532

EPHEMERIS_TYPE = 0
CLASSIFICATION_TYPE = U
NORAD_CAT_ID   = 67921
ELEMENT_SET_NO = 999
REV_AT_EPOCH   = 286
BSTAR          = .1354E-3
MEAN_MOTION_DOT = .28038E-3
MEAN_MOTION_DDOT = 0

