STARLINK-36847          
1 67910U 26036G   26063.83336806  .00055854  00000+0  26645-3 0  9996
2 67910  42.9964 279.5099 0001496 251.9092  35.5124 15.81985333  2860
STARLINK-36736          
1 67911U 26036H   26063.83336806 -.00024229  00000+0 -11281-3 0  9991
2 67911  42.9959 279.4987 0001484 288.8911   2.7826 15.82025128  2869
STARLINK-36676          
1 67912U 26036J   26063.83336806 -.00096116  00000+0 -45841-3 0  9995
2 67912  42.9960 279.4882 0002163 276.7715  19.1956 15.82040627  2866
STARLINK-36690          
1 67913U 26036K   26063.83336806 -.00009914  00000+0 -44633-4 0  9995
2 67913  42.9960 279.4774 0001450 255.9157  44.3483 15.82002690  2867
STARLINK-36724          
1 67914U 26036L   26063.83336806 -.00089183  00000+0 -42480-3 0  9999
2 67914  42.9961 279.4553 0001442 263.0495  45.7475 15.82044526  2860
STARLINK-36723          
1 67915U 26036M   26063.83336806 -.00036972  00000+0 -17386-3 0  9995
2 67915  42.9962 279.4665 0001500 254.4336  50.1087 15.82008732  2867
STARLINK-36721          
1 67916U 26036N   26063.83336806 -.00114836  00000+0 -54946-3 0  9995
2 67916  42.9963 279.4452 0001633 281.4751  31.5985 15.82039191  2864
STARLINK-36722          
1 67917U 26036P   26063.83336806 -.00044765  00000+0 -21121-3 0  9998
2 67917  42.9938 279.4343 0001691 265.6698  51.6790 15.82009402  2863
STARLINK-36341          
1 67918U 26036Q   26063.83336806 -.00005058  00000+0 -21528-4 0  9993
2 67918  42.9934 279.4126 0001650 259.9908  65.9126 15.81990463  2860
STARLINK-36663          
1 67919U 26036R   26063.83336806 -.00049760  00000+0 -23520-3 0  9995
2 67919  42.9942 279.4234 0002216 270.4778  51.1507 15.82006890  2865
STARLINK-36375          
1 67920U 26036S   26063.83336806 -.00001473  00000+0 -44650-5 0  9995
2 67920  42.9935 279.4021 0002156 270.5802  59.5925 15.81996351  2860
STARLINK-36405          
1 67921U 26036T   26063.83336806  .00028038  00000+0  13540-3 0  9992
2 67921  42.9935 279.3916 0001730 260.2864  74.1532 15.81992069  2863
